
INNOSAT 3 (RS92S0)
1 64894U 25155U   26170.25703652  .00033972  00000+0  74570-3 0  9994
2 64894  97.4490 141.8024 0006867 146.4193 213.7491 15.43950883 81283

KNACKSAT-2
1 67683U 98067XZ  26168.60673955  .00040994  00000+0  49993-3 0  9996
2 67683  51.6314 292.3670 0009088 217.1010 142.9356 15.60014370 20344
